TURKSAT 4A              
1 39522U 14007A   17051.46497819  .00000137  00000-0  00000-0 0  9996
2 39522   0.0814 276.1160 0004307  28.5592  55.2599  1.00271948 10877
EXPRESS-AT1             
1 39612U 14010A   17051.93769229  .00000069  00000-0  00000-0 0  9993
2 39612   0.0469 291.4510 0000587 185.1764  67.9789  1.00272314 10924
EXPRESS-AT2             
1 39613U 14010B   17052.35102559 -.00000290  00000-0  00000+0 0  9994
2 39613   0.0473 286.9908 0000302 119.9575  10.7021  1.00272780 10764
AMAZONAS 4A             
1 39616U 14011A   17050.75298385 -.00000291  00000-0  00000-0 0  9995
2 39616   0.0903  80.3419 0004804 282.9479 356.6883  1.00271609 10568
ASTRA 5B                
1 39617U 14011B   17051.82201015  .00000146  00000-0  00000-0 0  9997
2 39617   0.0438 329.3691 0003045  13.9331 135.0144  1.00273694 10559
IRNSS-1B                
1 39635U 14017A   17050.25676715  .00000082  00000-0  00000-0 0  9991
2 39635  29.3034 296.7492 0016899 180.5484 179.4950  1.00272672 10453
LUCH 5V                 
1 39727U 14023A   17051.60973050 -.00000275  00000-0  00000-0 0  9997
2 39727   2.9315 299.1939 0004022  36.8137 128.8653  1.00268513528394
KAZSAT 3                
1 39728U 14023B   17051.41934039  .00000051  00000-0  00000+0 0  9991
2 39728   0.0146 103.4462 0001147 342.7788 273.7640  1.00273055 10311
EUTELSAT 3B             
1 39773U 14030A   17051.89757535  .00000011  00000-0  00000+0 0  9991
2 39773   0.0669 337.5611 0002578 347.6958 151.9389  1.00271650 10090
ASIASAT 8               
1 40107U 14046A   17052.25011992 -.00000102  00000-0  00000+0 0  9994
2 40107   0.0224  87.3700 0010021 138.4112  15.8656  0.99753112  9378
ASIASAT 6               
1 40141U 14052A   17052.59080455 -.00000371  00000-0  00000+0 0  9994
2 40141   0.0152 105.4403 0000611 225.8625 152.9706  1.00272514  9040
OPTUS 10                
1 40146U 14054A   17052.12436187 -.00000083  00000-0  00000+0 0  9997
2 40146   0.0462 106.9395 0001481 227.3395  25.6901  1.00271750  9002
MEASAT-3B               
1 40147U 14054B   17051.32790085 -.00000251  00000-0  00000-0 0  9997
2 40147   0.0313 312.1651 0002459  28.6128  19.1884  1.00272873  8785
LUCH (OLYMP)            
1 40258U 14058A   17051.91367832  .00000058  00000-0  00000-0 0  9993
2 40258   0.0143 195.7150 0001068 120.5767 173.5054  1.00270365  8816
HIMAWARI-8              
1 40267U 14060A   17052.18900414 -.00000284  00000-0  00000+0 0  9996
2 40267   0.0483 292.6640 0000992  71.7502 355.5631  1.00273254  8748
IRNSS-1C                
1 40269U 14061A   17051.05593544 -.00000172  00000-0  00000+0 0  9992
2 40269   3.2462 253.5455 0021023   8.1819 351.6242  1.00271410  8685
INTELSAT 30 (IS-30)     
1 40271U 14062A   17052.20020868 -.00000160  00000-0  00000+0 0  9995
2 40271   0.0035 198.1328 0002743 157.9985 132.1656  1.00277962  8642
ARSAT 1                 
1 40272U 14062B   17052.49354098 -.00000268  00000-0  00000+0 0  9991
2 40272   0.0231 220.1102 0000916 133.0677 264.2751  1.00271933  8768
EXPRESS-AM6             
1 40277U 14064A   17052.12493199  .00000089  00000-0  00000+0 0  9994
2 40277   0.0476 286.6451 0000359 165.3972 157.1342  1.00273504  8543
GSAT-16                 
1 40332U 14078A   17052.68769484  .00000076  00000-0  00000+0 0  9991
2 40332   0.0459 290.0605 0003779 145.4048  18.9190  1.00275076  8145
DIRECTV 14              
1 40333U 14078B   17052.34138498 -.00000135  00000-0  00000+0 0  9997
2 40333   0.0190 128.1766 0001371 310.0191  96.9046  1.00274437  8126
YAMAL 401               
1 40345U 14082A   17052.04705270 -.00000237  00000-0  00000+0 0  9993
2 40345   0.0370 133.9231 0000874 253.1510 230.9585  1.00271321  8283
ASTRA 2G                
1 40364U 14089A   17051.50334185  .00000141  00000-0  00000+0 0  9997
2 40364   0.0414 325.4711 0003573  65.0988 329.4266  1.00274297  7893
FENGYUN 2G              
1 40367U 14090A   17052.58432308 -.00000336  00000-0  00000+0 0  9994
2 40367   0.6722 264.4168 0001297 288.0290 273.9587  1.00261736  7923
INMARSAT 5-F2           
1 40384U 15005A   17052.47236616 -.00000294  00000-0  00000+0 0  9995
2 40384   0.0213 127.0336 0000363 259.8867 239.7054  1.00269554  7555
ABS-3A                  
1 40424U 15010A   17052.01298480 -.00000035  00000-0  00000+0 0  9996
2 40424   0.0098 117.9067 0001675 130.7359 264.1457  1.00273233  7288
EUTELSAT 115 WEST B     
1 40425U 15010B   17051.89971653 -.00000034  00000-0  00000+0 0  9991
2 40425   0.0079 328.8196 0000213 315.7285  75.4259  1.00271704  7312
EXPRESS-AM7             
1 40505U 15012A   17051.84624120  .00000142  00000-0  00000-0 0  9991
2 40505   0.0030 156.7215 0002218 156.9618 181.8905  1.00271560  7231
IRNSS-1D                
1 40547U 15018A   17052.09404034 -.00000294  00000-0  00000+0 0  9999
2 40547  29.2898 296.8583 0017979 181.9022 178.1432  1.00274627  7122
BEIDOU I1-S             
1 40549U 15019A   17052.59024545 -.00000180  00000-0  00000+0 0  9996
2 40549  54.5051 335.0915 0039062 184.1614 300.0853  1.00264547  6964
THOR 7                  
1 40613U 15022A   17051.58320298 -.00000017  00000-0  00000+0 0  9993
2 40613   0.0150 176.1868 0002508 165.6560  18.1242  1.00273081  6694
TURKMENALEM52E/MONACOSAT
1 40617U 15023A   17051.43729615  .00000095  00000-0  00000+0 0  9993
2 40617   0.0141  93.2061 0002834 257.7656   8.9990  1.00271181  6712
DIRECTV 15              
1 40663U 15026A   17050.86875163 -.00000112  00000-0  00000+0 0  9994
2 40663   0.0129 106.1178 0000310   4.0911 249.7697  1.00270414  6409
SKY MEXICO-1            
1 40664U 15026B   17051.79961913 -.00000243  00000-0  00000+0 0  9992
2 40664   0.0180 219.1071 0001971 132.4457   8.4201  1.00269177  6415
METEOSAT-11 (MSG-4)     
1 40732U 15034A   17051.27718106 -.00000037  00000-0  00000+0 0  9995
2 40732   2.0332 247.0724 0001870  61.6817 297.9138  1.00276376  5915
STAR ONE C4             
1 40733U 15034B   17051.77531222 -.00000274  00000-0  00000+0 0  9996
2 40733   0.0335 358.3238 0002974   4.3225 357.3313  1.00272181  5912
INTELSAT 34 (IS-34)     
1 40874U 15039A   17051.73514950 -.00000294  00000-0  00000+0 0  9994
2 40874   0.0123 139.6042 0000955  49.3343 171.0598  1.00270012  5550
EUTELSAT 8 WEST B       
1 40875U 15039B   17051.60349784 -.00000075  00000-0  00000+0 0  9999
2 40875   0.0673 351.5999 0004106 333.4994  34.8498  1.00271473  5566
GSAT-6                  
1 40880U 15041A   17051.35119470 -.00000173  00000-0  00000+0 0  9996
2 40880   0.1105 268.1851 0009572  15.4771  76.2069  1.00272218  5501
INMARSAT 5-F3           
1 40882U 15042A   17052.08113610  .00000041  00000-0  00000+0 0  9993
2 40882   0.0111 115.8290 0000747 335.7373 268.4188  1.00272225  5432
TJS-1                   
1 40892U 15046A   17051.64728997 -.00000165  00000-0  00000-0 0  9998
2 40892   0.0412 218.4952 0008166 130.3463 189.9556  1.00270814  5421
EXPRESS-AM8             
1 40895U 15048A   17052.09058819 -.00000121  00000-0  00000+0 0  9993
2 40895   0.0404 283.2702 0000419 194.2825  52.2175  1.00272130  5255
BEIDOU I2-S             
1 40938U 15053A   17052.42962877 -.00000119  00000-0  00000+0 0  9999
2 40938  54.3617 297.9810 0046141 172.4788 291.9253  1.00276610  5246
SKY MUSTER (NBN1A)      
1 40940U 15054A   17051.19289564 -.00000288  00000-0  00000+0 0  9998
2 40940   0.0119 174.6465 0001759 170.2502  15.0736  1.00272034  5154
ARSAT 2                 
1 40941U 15054B   17050.80849909 -.00000234  00000-0  00000+0 0  9992
2 40941   0.0169 171.2592 0001207 181.2447   7.4693  1.00272507  5187
MORELOS 3               
1 40946U 15056A   17051.81192583 -.00000046  00000-0  00000+0 0  9991
2 40946   6.5678 330.0104 0003454 357.9979   2.0727  1.00272470  5166
APSTAR 9                
1 40982U 15059A   17051.18797466 -.00000275  00000-0  00000-0 0  9990
2 40982   0.0493 273.5162 0001362  13.4645  72.9799  1.00274073  5037
TURKSAT 4B              
1 40984U 15060A   17051.44287291  .00000106  00000-0  00000+0 0  9994
2 40984   0.0129 125.1098 0001996 208.2892  26.5908  1.00271584  4980
CHINASAT 2C (ZX 2C)     
1 41021U 15063A   17052.04583561 -.00000332  00000-0  00000+0 0  9998
2 41021   0.0429 270.5377 0004054  97.4699 263.0548  1.00269497  4889
GSAT-15                 
1 41028U 15065A   17051.32229418 -.00000267  00000-0  00000-0 0  9993
2 41028   0.0537 275.6607 0001555  36.6278  47.6739  1.00272628  4731
BADR-7 (ARABSAT-6B)     
1 41029U 15065B   17051.50924884  .00000136  00000-0  00000+0 0  9996
2 41029   0.0642 262.5385 0003594 354.0682 103.3291  1.00276401  4789
LAOSAT 1                
1 41034U 15067A   17051.22537524 -.00000352  00000-0  00000+0 0  9995
2 41034   0.0537 294.6565 0000976 312.0273 113.2816  1.00271286  4717
TELSTAR 12V             
1 41036U 15068A   17050.62568068 -.00000129  00000-0  00000+0 0  9990
2 41036   0.0187 135.0639 0002186 204.5014  20.4259  1.00269679  4592
CHINASAT 1C (ZX 1C)     
1 41103U 15073A   17052.04908941 -.00000158  00000-0  00000+0 0  9999
2 41103   0.0299 227.9120 0004957  74.1816 308.1821  1.00269495  4548
ELEKTRO-L 2             
1 41105U 15074A   17052.61270148 -.00000106  00000-0  00000+0 0  9999
2 41105   0.0810 293.3322 0001473 100.5688  54.4464  1.00273213  4403
COSMOS 2513             
1 41121U 15075A   17052.59598788 -.00000147  00000-0  00000+0 0  9993
2 41121   0.0541 104.3420 0003065 236.5663 105.5717  1.00272199  4483
EXPRESS-AMU1            
1 41191U 15082A   17051.99522796  .00000147  00000-0  00000-0 0  9997
2 41191   0.0166 114.3136 0001855 198.9583 232.1694  1.00273913  4380
GAOFEN 4                
1 41194U 15083A   17051.98417073 -.00000344  00000-0  00000-0 0  9991
2 41194   0.1486 274.6751 0002646 319.6943  16.7785  1.00274550  4366
BELINTERSAT-1           
1 41238U 16001A   17051.94353652  .00000098  00000-0  10000-3 0  9998
2 41238   0.0362  56.2524 0001299 248.2238 237.7043  1.00273605  4155
